[{"OBJECT_NAME":"STARLINK-31736","OBJECT_ID":"2024-074P","EPOCH":"2026-03-09T02:16:19.374816","MEAN_MOTION":15.27578592,"ECCENTRICITY":0.00014724,"INCLINATION":43.0078,"RA_OF_ASC_NODE":339.9225,"ARG_OF_PERICENTER":268.2918,"MEAN_ANOMALY":91.7765,"EPHEMERIS_TYPE":0,"CLASSIFICATION_TYPE":"U","NORAD_CAT_ID":59547,"ELEMENT_SET_NO":999,"REV_AT_EPOCH":10600,"BSTAR":-0.00011845765,"MEAN_MOTION_DOT":-3.52e-5,"MEAN_MOTION_DDOT":0},{"OBJECT_NAME":"FLOCK 4G-15","OBJECT_ID":"2025-009BX","EPOCH":"2026-03-09T17:13:37.807680","MEAN_MOTION":15.27266411,"ECCENTRICITY":0.00036988,"INCLINATION":97.4054,"RA_OF_ASC_NODE":151.1927,"ARG_OF_PERICENTER":316.8208,"MEAN_ANOMALY":43.274,"EPHEMERIS_TYPE":0,"CLASSIFICATION_TYPE":"U","NORAD_CAT_ID":62678,"ELEMENT_SET_NO":999,"REV_AT_EPOCH":12135,"BSTAR":0.00047574812,"MEAN_MOTION_DOT":0.00012647,"MEAN_MOTION_DDOT":0}]
